*******************************************************************************
 Revised: Dec 04, 2019            Ananke / (Jupiter)                        512

 SATELLITE PHYSICAL PROPERTIES:
  Radius (km)             = 10              Density (g cm^-3)   =              
  Mass (10^20 kg )        =                 Geometric Albedo    =  
                                            V(1,0)              = +12.2 

 SATELLITE ORBITAL DATA:
  Semi-major axis, a (km) = 21200 (10^3)    Orbital period      = 631 d (retro)
  Eccentricity, e         =   0.169         Rotational period   = 
  Inclination, i  (deg)   =  147            Local invar ref. pln= Sun
*******************************************************************************
 
 
*******************************************************************************
Ephemeris / WWW_USER Fri Jun 19 18:19:38 2020 Pasadena, USA      / Horizons
*******************************************************************************
Target body name: Ananke (512)                    {source: jup343_merged}
Center body name: Solar System Barycenter (0)     {source: DE431mx}
Center-site name: BODY CENTER
*******************************************************************************
Start time      : A.D. 1969-Jun-28 00:00:00.0000 TDB
Stop  time      : A.D. 2071-May-04 00:00:00.0000 TDB
Step-size       : 7200 minutes
*******************************************************************************
Center geodetic : 0.00000000,0.00000000,0.0000000 {E-lon(deg),Lat(deg),Alt(km)}
Center cylindric: 0.00000000,0.00000000,0.0000000 {E-lon(deg),Dxy(km),Dz(km)}
Center radii    : (undefined)                                                  
Output units    : AU-D
Output type     : GEOMETRIC cartesian states
Output format   : 2 (position and velocity)
Reference frame : Ecliptic of J2000.0
*******************************************************************************
            JDTDB,            Calendar Date (TDB),        delta-T,                      X,                      Y,                      Z,                     VX,                     VY,                     VZ,
******************************************************************************************************************************************************************************************************************
$$SOE
2468575.500000000, A.D. 2046-Aug-18 00:00:00.0000,      69.182901,  4.996384186854424E+00,  8.255353144036313E-01, -4.912325962947753E-02, -6.066305418899630E-04,  6.673131201054330E-03, -5.363755533802953E-04,
2468580.500000000, A.D. 2046-Aug-23 00:00:00.0000,      69.182799,  4.993079424897870E+00,  8.587888914408308E-01, -5.188057121524471E-02, -7.158387213244451E-04,  6.628492327301414E-03, -5.665123688727668E-04,
2468585.500000000, A.D. 2046-Aug-28 00:00:00.0000,      69.182706,  4.989220063970582E+00,  8.918223609945897E-01, -5.478791614288285E-02, -8.284878594847022E-04,  6.585128229930620E-03, -5.963682878177189E-04,
2468590.500000000, A.D. 2046-Sep-02 00:00:00.0000,      69.182624,  4.984788644867744E+00,  9.246427163285007E-01, -5.784356664099256E-02, -9.446773502482912E-04,  6.543290497829826E-03, -6.258111614949841E-04,
2468595.500000000, A.D. 2046-Sep-07 00:00:00.0000,      69.182551,  4.979767250391930E+00,  9.572582675297466E-01, -6.104509057637739E-02, -1.064490150835875E-03,  6.503254450228167E-03, -6.546910986559619E-04,
2468600.500000000, A.D. 2046-Sep-12 00:00:00.0000,      69.182487,  4.974137600720105E+00,  9.896787603612256E-01, -6.438925927334012E-02, -1.187987618104185E-03,  6.465318948481615E-03, -6.828393358813075E-04,
2468605.500000000, A.D. 2046-Sep-17 00:00:00.0000,      69.182434,  4.967881174415523E+00,  1.021915493747732E+00, -6.787195117194383E-02, -1.315203910786982E-03,  6.429806194543855E-03, -7.100672839991462E-04,
2468610.500000000, A.D. 2046-Sep-22 00:00:00.0000,      69.182392,  4.960979359581883E+00,  1.053981432476067E+00, -7.148805172500149E-02, -1.446140037274681E-03,  6.397060179592834E-03, -7.361662983001208E-04,
2468615.500000000, A.D. 2046-Sep-27 00:00:00.0000,      69.182363,  4.953413636869877E+00,  1.085891311619906E+00, -7.523135216768179E-02, -1.580756926188344E-03,  6.367444407528046E-03, -7.609074643999954E-04,
2468620.500000000, A.D. 2046-Oct-02 00:00:00.0000,      69.182348,  4.945165796050879E+00,  1.117661726346853E+00, -7.909445001144232E-02, -1.718968609418456E-03,  6.341338826540211E-03, -7.840422320392321E-04,
2468625.500000000, A.D. 2046-Oct-07 00:00:00.0000,      69.182344,  4.936218189008975E+00,  1.149311202082637E+00, -8.306865354686763E-02, -1.860635235093200E-03,  6.319134777734994E-03, -8.053038560837365E-04,
2468630.500000000, A.D. 2046-Oct-12 00:00:00.0000,      69.182351,  4.926554017027199E+00,  1.180860238560469E+00, -8.714389569808660E-02, -2.005555685789570E-03,  6.301229344746264E-03, -8.244093460563055E-04,
2468635.500000000, A.D. 2046-Oct-17 00:00:00.0000,      69.182369,  4.916157652290114E+00,  1.212331319469161E+00, -9.130866083356555E-02, -2.153461563938130E-03,  6.288017845473511E-03, -8.410628231679686E-04,
2468640.500000000, A.D. 2046-Oct-22 00:00:00.0000,      69.182400,  4.905014990522206E+00,  1.243748881908382E+00, -9.554992968424358E-02, -2.304011309156451E-03,  6.279884650533458E-03, -8.549596121251591E-04,
2468645.500000000, A.D. 2046-Oct-27 00:00:00.0000,      69.182445,  4.893113827083181E+00,  1.275139237533812E+00, -9.985314868978695E-02, -2.456785753596584E-03,  6.277193276885797E-03, -8.657915619327069E-04,
2468650.500000000, A.D. 2046-Nov-01 00:00:00.0000,      69.182502,  4.880444251329105E+00,  1.306530438368811E+00, -1.042022282679867E-01, -2.611286363978801E-03,  6.280274585503391E-03, -8.732536098334093E-04,
2468655.500000000, A.D. 2046-Nov-06 00:00:00.0000,      69.182569,  4.866999046995761E+00,  1.337952083819603E+00, -1.085795760963686E-01, -2.766934289049078E-03,  6.289414322345324E-03, -8.770510662893556E-04,
2468660.500000000, A.D. 2046-Nov-11 00:00:00.0000,      69.182646,  4.852774085399620E+00,  1.369435063130921E+00, -1.129661699739012E-01, -2.923073683547037E-03,  6.304840567027209E-03, -8.769080771220110E-04,
2468665.500000000, A.D. 2046-Nov-16 00:00:00.0000,      69.182732,  4.837768698825122E+00,  1.401011233632547E+00, -1.173416737932001E-01, -3.078977627117656E-03,  6.326710559080748E-03, -8.725764709901466E-04,
2468670.500000000, A.D. 2046-Nov-21 00:00:00.0000,      69.182829,  4.821986014908886E+00,  1.432713037443097E+00, -1.216845990038102E-01, -3.233856580373418E-03,  6.355098761668374E-03, -8.638449733289821E-04,
2468675.500000000, A.D. 2046-Nov-26 00:00:00.0000,      69.182936,  4.805433236787408E+00,  1.464573059828444E+00, -1.259725115639112E-01, -3.386872088530512E-03,  6.389986612233745E-03, -8.505481266259100E-04,
2468680.500000000, A.D. 2046-Dec-01 00:00:00.0000,      69.183052,  4.788121852674679E+00,  1.496623541151864E+00, -1.301822825542204E-01, -3.537151851247451E-03,  6.431253529707745E-03, -8.325746927247009E-04,
2468685.500000000, A.D. 2046-Dec-06 00:00:00.0000,      69.183174,  4.770067757593390E+00,  1.528895853764355E+00, -1.342903774750970E-01, -3.683808364007601E-03,  6.478671995816363E-03, -8.098748529897547E-04,
2468690.500000000, A.D. 2046-Dec-11 00:00:00.0000,      69.183302,  4.751291278266143E+00,  1.561419958823679E+00, -1.382731779828056E-01, -3.825960149684637E-03,  6.531905391503821E-03, -7.824655579430456E-04,
2468695.500000000, A.D. 2046-Dec-16 00:00:00.0000,      69.183434,  4.731817090689105E+00,  1.594223864044816E+00, -1.421073259272583E-01, -3.962752875152486E-03,  6.590509351648389E-03, -7.504343186227653E-04,
2468700.500000000, A.D. 2046-Dec-21 00:00:00.0000,      69.183571,  4.711674026588431E+00,  1.627333099480940E+00, -1.457700787942001E-01, -4.093381810727867E-03,  6.653938427177668E-03, -7.139400119413878E-04,
2468705.500000000, A.D. 2046-Dec-26 00:00:00.0000,      69.183713,  4.690894773648432E+00,  1.660770231832329E+00, -1.492396655287870E-01, -4.217112991703740E-03,  6.721554960787196E-03, -6.732116533490513E-04,
2468710.500000000, A.D. 2046-Dec-31 00:00:00.0000,      69.183857,  4.669515473234587E+00,  1.694554437661269E+00, -1.524956274985579E-01, -4.333301843107751E-03,  6.792642654351728E-03, -6.285445149254114E-04,
2468715.500000000, A.D. 2047-Jan-05 00:00:00.0000,      69.184002,  4.647575230168068E+00,  1.728701148922915E+00, -1.555191344666429E-01, -4.441409696758214E-03,  6.866423067482170E-03, -5.802934550743574E-04,
2468720.500000000, A.D. 2047-Jan-10 00:00:00.0000,      69.184146,  4.625115552210885E+00,  1.763221785894128E+00, -1.582932640619198E-01, -4.541016088178960E-03,  6.942073247829379E-03, -5.288649869917088E-04,
2468725.500000000, A.D. 2047-Jan-15 00:00:00.0000,      69.184287,  4.602179736820652E+00,  1.798123585754621E+00, -1.608032334318971E-01, -4.631826399788701E-03,  7.018745925004496E-03, -4.747069265872015E-04,
2468730.500000000, A.D. 2047-Jan-20 00:00:00.0000,      69.184428,  4.578812229730825E+00,  1.833409528914026E+00, -1.630365792073856E-01, -4.713676059275626E-03,  7.095589262492617E-03, -4.182971157588831E-04,
2468735.500000000, A.D. 2047-Jan-25 00:00:00.0000,      69.184566,  4.555057977241972E+00,  1.869078365237087E+00, -1.649832791241391E-01, -4.786529172586160E-03,  7.171765887617516E-03, -3.601321766743244E-04,
2468740.500000000, A.D. 2047-Jan-30 00:00:00.0000,      69.184701,  4.530961792734809E+00,  1.905124732754309E+00, -1.666358145842454E-01, -4.850473389835359E-03,  7.246471118022074E-03, -3.007152344401007E-04,
2468745.500000000, A.D. 2047-Feb-04 00:00:00.0000,      69.184829,  4.506567758885778E+00,  1.941539360087307E+00, -1.679891764251153E-01, -4.905711643595930E-03,  7.318948554201374E-03, -2.405448328445595E-04,
